NORAD_CAT_ID,OBJECT_NAME,OBJECT_TYPE,EPOCH,MEAN_MOTION,ECCENTRICITY,INCLINATION,RA_OF_ASC_NODE,ARG_OF_PERICENTER,MEAN_ANOMALY,BSTAR,MEAN_MOTION_DOT,MEAN_MOTION_DDOT,TLE_LINE0,TLE_LINE1,TLE_LINE2,SEMIMAJOR_AXIS,PERIOD,APOGEE,PERIGEE,DECAYED
53276.0,STARLINK-4174,PAYLOAD,2022-11-25 19:50:38,15.08843193,0.0001818,53.2168,170.5166,59.1004,301.0167,7.8756e-05,9.66e-06,0.0,0 STARLINK-4174,1 53276U 22086AL  22329.82683982  .00000966  00000-0  78756-4 0  9993,2 53276  53.2168 170.5166 0001818  59.1004 301.0167 15.08843193 20050,6917.871,95.437,540.993,538.4780000000002,0.0
53276.0,STARLINK-4174,PAYLOAD,2022-11-25 21:26:01,15.08844374,0.0001832,53.2169,170.2192,59.4973,300.62,8.774399999999999e-05,1.109e-05,0.0,0 STARLINK-4174,1 53276U 22086AL  22329.89307859  .00001109  00000-0  87744-4 0  9993,2 53276  53.2169 170.2192 0001832  59.4973 300.6200 15.08844374 19896,6917.8669999999975,95.437,540.999,538.465,0.0
53276.0,STARLINK-4174,PAYLOAD,2022-11-26 13:19:52,15.08849428,0.0001847,53.2166,167.2454,60.2587,299.8588,8.966700000000001e-05,1.14e-05,0.0,0 STARLINK-4174,1 53276U 22086AL  22330.55547187  .00001140  00000-0  89667-4 0  9999,2 53276  53.2166 167.2454 0001847  60.2587 299.8588 15.08849428 20162,6917.852,95.437,540.994,538.439,0.0
53276.0,STARLINK-4174,PAYLOAD,2022-11-26 19:41:25,15.08842057,0.0001943,53.2152,166.0576,58.7692,301.3491,-5.8713e-06,-3.82e-06,0.0,0 STARLINK-4174,1 53276U 22086AL  22330.82043837 -.00000382  00000-0 -58713-5 0  9990,2 53276  53.2152 166.0576 0001943  58.7692 301.3491 15.08842057 20203,6917.874,95.437,541.0830000000002,538.395,0.0
53276.0,STARLINK-4174,PAYLOAD,2022-11-26 21:16:48,15.08842904,0.0001867,53.2165,165.7614,51.4134,308.7025,-1.9355e-05,-5.96e-06,0.0,0 STARLINK-4174,1 53276U 22086AL  22330.88667823 -.00000596  00000-0 -19355-4 0  9998,2 53276  53.2165 165.7614 0001867  51.4134 308.7025 15.08842904 20049,6917.871999999999,95.437,541.028,538.445,0.0
53276.0,STARLINK-4174,PAYLOAD,2022-11-27 13:10:40,15.08840785,0.0001875,53.2159,162.7872,53.072,307.0443,-5.0637e-05,-1.094e-05,0.0,0 STARLINK-4174,1 53276U 22086AL  22331.54907873 -.00001094  00000-0 -50637-4 0  9996,2 53276  53.2159 162.7872 0001875  53.0720 307.0443 15.08840785 20314,6917.878000000002,95.438,541.04,538.446,0.0
53276.0,STARLINK-4174,PAYLOAD,2022-11-27 19:32:12,15.08842621,0.0001847,53.2164,161.5961,59.3604,300.757,-3.0056e-05,-7.67e-06,0.0,0 STARLINK-4174,1 53276U 22086AL  22331.81403608 -.00000767  00000-0 -30056-4 0  9992,2 53276  53.2164 161.5961 0001847  59.3604 300.7570 15.08842621 20351,6917.871999999999,95.437,541.015,538.46,0.0
53276.0,STARLINK-4174,PAYLOAD,2022-11-28 11:26:03,15.08843691,0.000187,53.2165,158.6226,59.3497,300.768,-6.4455e-05,-1.314e-05,0.0,0 STARLINK-4174,1 53276U 22086AL  22332.47643475 -.00001314  00000-0 -64455-4 0  9992,2 53276  53.2165 158.6226 0001870  59.3497 300.7680 15.08843691 20281,6917.869000000002,95.437,541.028,538.44,0.0
53276.0,STARLINK-4174,PAYLOAD,2022-11-28 13:01:27,15.08840578,0.000181,53.2166,158.3244,60.9176,299.1997,-8.3627e-05,-1.619e-05,0.0,0 STARLINK-4174,1 53276U 22086AL  22332.54267757 -.00001619  00000-0 -83627-4 0  9995,2 53276  53.2166 158.3244 0001810  60.9176 299.1997 15.08840578 20468,6917.879,95.438,540.996,538.491,0.0
53276.0,STARLINK-4174,PAYLOAD,2022-11-28 19:23:00,15.08835901,0.0001786999999999,53.2166,157.1344,61.9204,298.1969,-0.00010823,-2.01e-05,0.0,0 STARLINK-4174,1 53276U 22086AL  22332.80764144 -.00002010  00000-0 -10823-3 0  9999,2 53276  53.2166 157.1344 0001787  61.9204 298.1969 15.08835901 20330,6917.893,95.438,540.994,538.5219999999998,0.0
53276.0,STARLINK-4174,PAYLOAD,2022-11-29 12:52:15,15.08828992,0.00018,53.2161,153.8632,59.0949,301.022,-6.7476e-05,-1.362e-05,0.0,0 STARLINK-4174,1 53276U 22086AL  22333.53628873 -.00001362  00000-0 -67476-4 0  9994,2 53276  53.2161 153.8632 0001800  59.0949 301.0220 15.08828992 20615,6917.9140000000025,95.438,541.024,538.534,0.0
53276.0,STARLINK-4174,PAYLOAD,2022-11-29 19:13:47,15.08832363,0.0001805,53.2162,152.674,59.2527,300.8643,-3.3735e-05,-8.25e-06,0.0,0 STARLINK-4174,1 53276U 22086AL  22333.80124682 -.00000825  00000-0 -33735-4 0  9997,2 53276  53.2162 152.6740 0001805  59.2527 300.8643 15.08832363 20659,6917.904,95.438,541.0169999999998,538.52,0.0
53276.0,STARLINK-4174,PAYLOAD,2022-11-29 22:24:34,15.08831561,0.0001816,53.2165,152.0797,60.0086,300.1086,-3.7033e-05,-8.77e-06,0.0,0 STARLINK-4174,1 53276U 22086AL  22333.93372825 -.00000877  00000-0 -37033-4 0  9997,2 53276  53.2165 152.0797 0001816  60.0086 300.1086 15.08831561 20507,6917.906,95.438,541.0269999999998,538.515,0.0
53276.0,STARLINK-4174,PAYLOAD,2022-11-30 12:43:02,15.08828057,0.0001764999999999,53.2167,149.4033,59.4925,300.6241,4.5566e-05,4.37e-06,0.0,0 STARLINK-4174,1 53276U 22086AL  22334.52988996  .00000437  00000-0  45566-4 0  9995,2 53276  53.2167 149.4033 0001765  59.4925 300.6241 15.08828057 20761,6917.917,95.438,541.003,538.561,0.0
53276.0,STARLINK-4174,PAYLOAD,2022-11-30 19:04:35,15.08828419,0.0001778,53.2167,148.2139,59.6994,300.4173,4.4819e-05,4.25e-06,0.0,0 STARLINK-4174,1 53276U 22086AL  22334.79485171  .00000425  00000-0  44819-4 0  9998,2 53276  53.2167 148.2139 0001778  59.6994 300.4173 15.08828419 20806,6917.916,95.438,541.011,538.5509999999998,0.0
53276.0,STARLINK-4174,PAYLOAD,2022-12-01 04:36:53,15.08833495,0.0001803,53.2169,146.4298,60.1745,299.9426,7.3087e-05,8.75e-06,0.0,0 STARLINK-4174,1 53276U 22086AL  22335.19228945  .00000875  00000-0  73087-4 0  9995,2 53276  53.2169 146.4298 0001803  60.1745 299.9426 15.08833495 20694,6917.9,95.438,541.013,538.518,0.0
53276.0,STARLINK-4174,PAYLOAD,2022-12-01 12:33:49,15.08836537,0.0001786999999999,53.217,144.9428,61.0795,299.0376,6.1636e-05,6.93e-06,0.0,0 STARLINK-4174,1 53276U 22086AL  22335.52348913  .00000693  00000-0  61636-4 0  9995,2 53276  53.2170 144.9428 0001787  61.0795 299.0376 15.08836537 20910,6917.891,95.438,540.992,538.52,0.0
53276.0,STARLINK-4174,PAYLOAD,2022-12-02 10:49:12,15.08844133,0.000182,53.2171,140.7797,61.8607,298.2569,8.5806e-05,1.078e-05,0.0,0 STARLINK-4174,1 53276U 22086AL  22336.45084280  .00001078  00000-0  85806-4 0  9995,2 53276  53.2171 140.7797 0001820  61.8607 298.2569 15.08844133 20884,6917.868,95.437,540.992,538.474,0.0
53276.0,STARLINK-4174,PAYLOAD,2022-12-03 04:18:27,15.08840522,0.0001847,53.2173,137.5087,62.088,298.0299,1.6837e-05,-2e-07,0.0,0 STARLINK-4174,1 53276U 22086AL  22337.17948596 -.00000020  00000-0  16837-4 0  9999,2 53276  53.2173 137.5087 0001847  62.0880 298.0299 15.08840522 20995,6917.879,95.438,541.0219999999998,538.466,0.0
53276.0,STARLINK-4174,PAYLOAD,2022-12-03 17:01:32,15.08841701,0.0001823,53.2171,135.1296,63.0638,297.0540000000001,4.7648000000000005e-06,-2.12e-06,0.0,0 STARLINK-4174,1 53276U 22086AL  22337.70940434 -.00000212  00000-0  47648-5 0  9999,2 53276  53.2171 135.1296 0001823  63.0638 297.0540 15.08841701 21242,6917.875,95.437,541.001,538.479,0.0
53276.0,STARLINK-4174,PAYLOAD,2022-12-04 10:30:46,15.08844524,0.0001771999999999,53.2176,131.8578,64.0745,296.0429,-3.3547000000000007e-06,-3.42e-06,0.0,0 STARLINK-4174,1 53276U 22086AL  22338.43803992 -.00000342  00000-0 -33547-5 0  9995,2 53276  53.2176 131.8578 0001772  64.0745 296.0429 15.08844524 21180,6917.8669999999975,95.437,540.957,538.506,0.0
53276.0,STARLINK-4174,PAYLOAD,2022-12-04 13:41:33,15.08840891,0.0001761,53.218,131.2623,65.7888,294.3288,-2.2074e-05,-6.39e-06,0.0,0 STARLINK-4174,1 53276U 22086AL  22338.57052248 -.00000639  00000-0 -22074-4 0  9991,2 53276  53.2180 131.2623 0001761  65.7888 294.3288 15.08840891 21372,6917.878000000002,95.437,540.961,538.524,0.0
53276.0,STARLINK-4174,PAYLOAD,2022-12-04 16:52:19,15.08836921,0.0001758,53.2173,130.6689,62.1368,297.9802,-6.9071e-05,-1.387e-05,0.0,0 STARLINK-4174,1 53276U 22086AL  22338.70300645 -.00001387  00000-0 -69071-4 0  9992,2 53276  53.2173 130.6689 0001758  62.1368 297.9802 15.08836921 21223,6917.89,95.438,540.971,538.539,0.0
53276.0,STARLINK-4174,PAYLOAD,2022-12-05 10:21:33,15.08839557,0.0001733,53.2177,127.3984,59.5762,300.5401,3.4739e-05,2.65e-06,0.0,0 STARLINK-4174,1 53276U 22086AL  22339.43164114  .00000265  00000-0  34739-4 0  9997,2 53276  53.2177 127.3984 0001733  59.5762 300.5401 15.08839557 21335,6917.882,95.438,540.946,538.548,0.0
53276.0,STARLINK-4174,PAYLOAD,2022-12-05 15:07:42,15.08842985,0.0001754,53.2177,126.5066,59.6429,300.4737,5.9742e-05,6.63e-06,0.0,0 STARLINK-4174,1 53276U 22086AL  22339.63035790  .00000663  00000-0  59742-4 0  9999,2 53276  53.2177 126.5066 0001754  59.6429 300.4737 15.08842985 21533,6917.871,95.437,540.95,538.523,0.0
53276.0,STARLINK-4174,PAYLOAD,2022-12-06 08:36:57,15.08845508,0.0001771999999999,53.2173,123.2372,55.1407,304.9751,3.5145e-05,2.71e-06,0.0,0 STARLINK-4174,1 53276U 22086AL  22340.35899455  .00000271  00000-0  35145-4 0  9992,2 53276  53.2173 123.2372 0001772  55.1407 304.9751 15.08845508 21641,6917.864000000001,95.437,540.9540000000002,538.503,0.0
53276.0,STARLINK-4174,PAYLOAD,2022-12-06 16:33:54,15.08826326,0.0001715,53.2168,121.748,55.5079,304.6075,-4.3718e-05,-9.83e-06,0.0,0 STARLINK-4174,1 53276U 22086AL  22340.69020998 -.00000983  00000-0 -43718-4 0  9994,2 53276  53.2168 121.7480 0001715  55.5079 304.6075 15.08826326 21692,6917.922,95.438,540.974,538.601,0.0
53276.0,STARLINK-4174,PAYLOAD,2022-12-07 10:03:08,15.0883698,0.0001568,53.2174,118.4774,49.6889,310.4240000000001,-8.3514e-05,-1.617e-05,0.0,0 STARLINK-4174,1 53276U 22086AL  22341.41884903 -.00001617  00000-0 -83514-4 0  9992,2 53276  53.2174 118.4774 0001568  49.6889 310.4240 15.08836980 21637,6917.89,95.438,540.839,538.67,0.0
53276.0,STARLINK-4174,PAYLOAD,2022-12-07 16:24:40,15.08839972,0.0001614,53.2176,117.2883,50.5266,309.5869,3.5573e-06,-2.31e-06,0.0,0 STARLINK-4174,1 53276U 22086AL  22341.68380426 -.00000231  00000-0  35573-5 0  9995,2 53276  53.2176 117.2883 0001614  50.5266 309.5869 15.08839972 21842,6917.88,95.438,540.862,538.629,0.0
